BEESAT-4                
1 41619U 16040W   21069.72643563  .00002065  00000-0  85404-4 0  9994
2 41619  97.2834 128.5458 0009623 328.0940  31.9715 15.25032201249962
CAS-2T & KS-1Q          
1 41847U 16066G   21069.89164006  .00000133  00000-0  29786-4 0  9998
2 41847  98.6152 128.5546 0365973 154.4056 207.5763 14.38156459227711
NAYIF-1 (EO-88)         
1 42017U 17008BX  21069.86715277  .00002246  00000-0  85778-4 0  9994
2 42017  97.3270 139.2163 0007795  98.2115 262.0009 15.27637880226201
ZHUHAI-1 02 (CAS-4B)    
1 42759U 17034B   21070.28189109  .00000488  00000-0  42805-4 0  9993
2 42759  43.0184   0.7530 0010634 271.9752 222.3918 15.10105371206303
ZHUHAI-1 01 (CAS-4A)    
1 42761U 17034D   21070.54920102  .00000501  00000-0  43482-4 0  9999
2 42761  43.0191 358.4072 0011161 274.0326 255.0832 15.10187112206340
MAX VALIER SAT          
1 42778U 17036P   21069.78040755  .00001320  00000-0  58465-4 0  9997
2 42778  97.2692 121.5731 0012722 157.1686 203.0119 15.23286493206268
RADFXSAT (FOX-1B)       
1 43017U 17073E   21069.72358414  .00000708  00000-0  60724-4 0  9993
2 43017  97.7142 337.6009 0254054 262.4355  94.7935 14.79374220178521
FOX-1D (AO-92)          
1 43137U 18004AC  21070.17743041  .00001545  00000-0  64977-4 0  9990
2 43137  97.4154 145.1982 0008640 187.0857 173.0260 15.24896599175677
DIWATA-2B               
1 43678U 18084H   21070.38666428  .00000499  00000-0  55249-4 0  9993
2 43678  97.9080 195.2545 0010692  22.5150 337.6527 14.91720570128816
ES'HAIL 2               
1 43700U 18090A   21070.15680472  .00000121  00000-0  00000+0 0  9998
2 43700   0.0109 217.0528 0002353 175.0387 219.1800  1.00273514  8625
FOX-1CLIFF (AO-95)      
1 43770U 18099N   21070.48085460  .00000765  00000-0  74665-4 0  9993
2 43770  97.6748 142.7939 0015141  31.2438 328.9680 14.95222878123811
ITASAT 1                
1 43786U 18099AE  21069.68374373  .00000732  00000-0  71047-4 0  9999
2 43786  97.6769 142.6228 0015716  27.1615 333.0425 14.95530675123721
JY1SAT (JO-97)          
1 43803U 18099AX  21070.46596844  .00000601  00000-0  58971-4 0  9992
2 43803  97.6725 143.1540 0015433  24.2887 335.9058 14.95752940123848
UWE-4                   
1 43880U 18111E   21069.71307048  .00000140  00000-0  17274-4 0  9993
2 43880  97.6935 339.1060 0013859  75.5822 284.6937 14.96757476120313
PSAT2 (NO-104)          
1 44354U 19036R   21069.96988535  .00018106  00000-0  24792-3 0  9993
2 44354  28.5315  62.3412 0337464 290.3365  66.1277 15.10333886 94054
BRICSAT2 (NO-103)       
1 44355U 19036S   21070.09043703  .00046185  00000-0  55329-3 0  9997
2 44355  28.5286  30.8174 0289365 341.6142  17.4178 15.22818088 94375
JAISAT-1                
1 44419U 19038F   21069.87230971  .00001377  00000-0  80463-4 0  9991
2 44419  97.5767  35.0306 0019661 294.4643  65.4537 15.13462943 92882
DUCHIFAT-3              
1 44854U 19089C   21070.37108406  .00000656  00000-0  59016-4 0  9993
2 44854  36.9682 320.6207 0007196  56.0719 304.0705 14.99366194 68377
RS-44 & BREEZE-KM R/B   
1 44909U 19096E   21069.88246422 -.00000003  00000-0 -48942-4 0  9991
2 44909  82.5253 178.2990 0216616 323.8119  34.8487 12.79708676 56231
ORBITAL FACTORY 2 (OF-2)
1 45113U 19071C   21069.92927667  .00002439  00000-0  81807-4 0  9994
2 45113  51.6422 154.9547 0011895 299.1722  60.8069 15.34982143 62037
HUSKYSAT-1 (HO-107)     
1 45119U 19071J   21070.20457704  .00002199  00000-0  74676-4 0  9992
2 45119  51.6422 153.0405 0011257 296.6436  63.3393 15.35074826 62075
BY70-2                  
1 45857U 20042B   21070.40654654  .00001257  00000-0  18662-3 0  9992
2 45857  97.9896 147.1711 0012312 163.0876 197.0733 14.76752163 37070
SALSAT                  
1 46495U 20068K   21069.89067101  .00000731  00000-0  58185-4 0  9996
2 46495  97.6864   8.0228 0018084  50.2758 310.0058 15.03376826 24529
BY70-3                  
1 46839U 20079N   21070.56377612  .00003147  00000-0  10112-3 0  9998
2 46839  97.2494 146.3708 0007095 183.1977 290.8541 15.32986809 19205
RADFXSAT-2 (AO-109)     
1 47311U 21002C   21069.91600321  .00001232  00000-0  66386-4 0  9992
2 47311  60.6843 299.9710 0020171 344.1278  15.9173 15.21325175  7872
UVSQ-SAT                
1 47438U 21006AB  21070.43646546  .00000958  00000-0  58006-4 0  9998
2 47438  97.4998 133.3676 0014380  78.7248 281.5598 15.12907541  7230
